LEMUR-2-FURIAUS         
1 42840U 17042R   26068.96143223  .00025928  00000+0  99966-3 0  9991
2 42840  97.3753 248.4990 0007537  55.8686 304.3266 15.26272951473053
STARLINK-36472          
1 67346U 26003N   26068.44543081  .00030991  00000+0  11309-2 0  9995
2 67346  42.9990 228.6924 0001375 270.6243  89.4451 15.27581501  8772
